BEIDOU-3 M13 (C32)      
1 43622U 18072A   24149.94791542  .00000010  00000+0  00000+0 0  9995
2 43622  55.9791  87.5214 0008071 306.5780  53.3299  1.86231423 38706
BEIDOU-3 M14 (C33)      
1 43623U 18072B   24149.27641629  .00000010  00000+0  00000+0 0  9992
2 43623  55.9805  87.5370 0006209 330.3613  29.5841  1.86231428 38687
BEIDOU-3 M16 (C35)      
1 43647U 18078A   24148.90231189 -.00000054  00000+0  00000+0 0  9998
2 43647  54.7309 326.1324 0007475  23.8900 336.1454  1.86232191 38189
BEIDOU-3 M15 (C34)      
1 43648U 18078B   24150.10539425 -.00000055  00000+0  00000+0 0  9999
2 43648  54.7255 326.0937 0004571  38.7596 321.2750  1.86232167 38221
BEIDOU-3 G1 (C59)       
1 43683U 18085A   24150.57616230 -.00000273  00000+0  00000+0 0  9999
2 43683   2.1463 110.2934 0004319 350.4837 134.2419  1.00268173 20553
COSMOS 2529 (757)       
1 43687U 18086A   24150.24375736  .00000033  00000+0  00000+0 0  9994
2 43687  64.2974 217.9226 0010657 259.0220 100.9318  2.13101994 43324
BEIDOU-3 M17 (C36)      
1 43706U 18093A   24148.64460924  .00000052  00000+0  00000+0 0  9990
2 43706  54.2165 207.7710 0009601 279.1636  80.8148  1.86228258 37561
BEIDOU-3 M18 (C37)      
1 43707U 18093B   24150.12096269  .00000044  00000+0  00000+0 0  9995
2 43707  54.2171 207.7126 0007524 305.4660  54.5436  1.86229660 37580
GPS BIII-1  (PRN 04)    
1 43873U 18109A   24150.39827492  .00000073  00000+0  00000+0 0  9998
2 43873  55.2907 121.7705 0028976 195.8082 347.5602  2.00554999 40052
BEIDOU-3 IGSO-1 (C38)   
1 44204U 19023A   24150.29878396 -.00000228  00000+0  00000+0 0  9994
2 44204  57.6143  45.4216 0018823 210.5172 215.8561  1.00254665 18831
BEIDOU-2 G8 (C01)       
1 44231U 19027A   24150.57711956 -.00000243  00000+0  00000+0 0  9994
2 44231   1.9032  73.8086 0002432 154.3098  11.7825  1.00270084 18571
COSMOS 2534 (758)       
1 44299U 19030A   24150.16549041  .00000033  00000+0  00000+0 0  9997
2 44299  64.3703 217.8767 0012523 279.8166 154.3209  2.13102131 38956
BEIDOU-3 IGSO-2 (C39)   
1 44337U 19035A   24150.49810177 -.00000071  00000+0  00000+0 0  9995
2 44337  55.1759 165.4317 0033271 209.5228 167.4852  1.00246487 18167
GPS BIII-2  (PRN 18)    
1 44506U 19056A   24150.49558557 -.00000072  00000+0  00000+0 0  9998
2 44506  55.8409   0.8231 0041632 188.0410 326.2448  2.00571368 35058
BEIDOU-3 M24 (C46)      
1 44542U 19061A   24150.19068181  .00000044  00000+0  00000+0 0  9998
2 44542  54.4440 208.0009 0007377 345.4498  14.6086  1.86231160 31841
BEIDOU-3 M23 (C45)      
1 44543U 19061B   24150.16965676  .00000044  00000+0  00000+0 0  9991
2 44543  54.4424 207.9707 0004851 324.6846 293.5224  1.86231465 31836
BEIDOU-3 IGSO-3 (C40)   
1 44709U 19073A   24149.79062649 -.00000193  00000+0  00000+0 0  9999
2 44709  56.0843 288.9295 0038424 180.7870 179.1570  1.00255424 16940
BEIDOU-3 M22 (C44)      
1 44793U 19078A   24148.42559776 -.00000054  00000+0  00000+0 0  9994
2 44793  54.5789 326.0834 0006562  32.1818 327.8586  1.86232098 30668
BEIDOU-3 M21 (C43)      
1 44794U 19078B   24149.62933624 -.00000054  00000+0  00000+0 0  9996
2 44794  54.5518 326.0181 0004264  31.2716 328.7552  1.86232548 30694
COSMOS 2544 (759)       
1 44850U 19088A   24150.08864932  .00000044  00000+0  00000+0 0  9995
2 44850  65.1840  98.8058 0014339 262.0000  97.8216  2.13102022 34750
BEIDOU-3 M19 (C41)      
1 44864U 19090A   24149.68081525  .00000011  00000+0  00000+0 0  9990
2 44864  55.9133  87.7031 0018733 284.6170 302.8383  1.86231524 30271
BEIDOU-3 M20 (C42)      
1 44865U 19090B   24150.54020243  .00000009  00000+0  00000+0 0  9995
2 44865  55.9153  87.7075 0016718 297.4514 235.9201  1.86231427 30274
BEIDOU-3 G2 (C60)       
1 45344U 20017A   24150.49269042 -.00000136  00000+0  00000+0 0  9997
2 45344   2.2937  28.9085 0001034  77.3240  38.6446  1.00269893 15755
COSMOS 2545 (760)       
1 45358U 20018A   24149.81642682 -.00000032  00000+0  00000+0 0  9997
2 45358  64.7531 338.6278 0007020 241.5368 118.4154  2.13102490 32694
BEIDOU-3 G3 (C61)       
1 45807U 20040A   24150.57757479 -.00000349  00000+0  00000+0 0  9998
2 45807   0.7475  39.8980 0004608 291.7799 234.3550  1.00266692 14568
GPS BIII-3  (PRN 23)    
1 45854U 20041A   24150.37410331 -.00000048  00000+0  00000+0 0  9998
2 45854  56.1073  58.1665 0042209 193.0888 169.5935  2.00558778 29028
GALAXY 30 (WAAS/PRN 135)
1 46114U 20056C   24149.62688211  .00000044  00000+0  00000+0 0  9999
2 46114   0.0149   5.7689 0002339  66.4548 275.1123  1.00271069 13772
COSMOS 2547 (705K)      
1 46805U 20075A   24150.00385519  .00000035  00000+0  00000+0 0  9996
2 46805  64.5993 217.5179 0008239 239.9246 120.0685  2.13103068 27948
GPS BIII-4  (PRN 14)    
1 46826U 20078A   24150.33603565 -.00000002  00000+0  00000+0 0  9997
2 46826  54.1875 241.1750 0045663 196.2929 117.1485  2.00560082 26480
GPS BIII-5  (PRN 11)    
1 48859U 21054A   24150.31527942 -.00000074  00000+0  00000+0 0  9991
2 48859  55.3654   2.4901 0014406 219.3967 264.0866  2.00559012 21731
QZS-1R (QZSS/PRN 196)   
1 49336U 21096A   24150.16577330 -.00000218  00000+0  00000+0 0  9997
2 49336  35.9068  90.8174 0755189 271.1410  79.8222  1.00265354  9496
GSAT0223 (PRN E34)      
1 49809U 21116A   24147.28313331 -.00000068  00000+0  00000+0 0  9996
2 49809  57.2968   1.9556 0001411 120.1023  59.7258  1.70475710 15364
GSAT0224 (PRN E10)      
1 49810U 21116B   24150.03281987 -.00000072  00000+0  00000+0 0  9991
2 49810  57.2981   1.8796 0001355 105.9145  73.9616  1.70475484 15431
COSMOS 2557 (706K)      
1 52984U 22075A   24149.69938184 -.00000034  00000+0  00000+0 0  9998
2 52984  64.6787 340.7640 0010607 283.9124  75.9950  2.13101981 14731
COSMOS 2559 (707K)      
1 54031U 22130A   24150.11146784 -.00000034  00000+0  00000+0 0  9991
2 54031  64.6505 340.8678 0005156 214.6177 145.3745  2.13101299 12721
COSMOS 2564 (761)       
1 54377U 22161A   24150.30269431  .00000033  00000+0  00000+0 0  9992
2 54377  64.7404 217.6092 0010694 221.8555 138.1363  2.13102014 11672
GPS BIII-6  (PRN 28)    
1 55268U 23009A   24148.09599726  .00000079  00000+0  00000+0 0  9990
2 55268  55.0855 177.9941 0001127 112.3701 250.5290  2.00565556 10187
BEIDOU-3 G4             
1 56564U 23066A   24150.50866644 -.00000107  00000+0  00000+0 0  9991
2 56564   2.1693 288.2146 0005425 195.3682 107.1268  1.00270613  3884
IRNSS-1J (NVS-01)       
1 56759U 23076A   24150.60743809 -.00000333  00000+0  00000+0 0  9997
2 56759   4.0451 266.6084 0003723  23.3987 305.8062  1.00266653  3609
COSMOS 2569 (703K)      
1 57517U 23114A   24150.31996493  .00000042  00000+0  00000+0 0  9996
2 57517  64.9104  97.9542 0012158 296.9296  62.9312  2.13103760  6302
BEIDOU-3 M25            
1 58654U 23207A   24150.24898045  .00000008  00000+0  00000+0 0  9990
2 58654  55.0963  87.7128 0003926 303.4843  56.4603  1.86232217  2891
BEIDOU-3 M26            
1 58655U 23207B   24150.04790522  .00000009  00000+0  00000+0 0  9991
2 58655  55.0981  87.7050 0004320 283.5883  76.3455  1.86231848  2870
GSAT0225 (PRN E29)      
1 59598U 24079A   24148.35232097  .00000056  00000+0  00000+0 0  9997
2 59598  54.6788 122.1023 0021789 254.3920 106.2920  1.72327387   515
GSAT0227 (PRN E06)      
1 59600U 24079C   24149.76135178  .00000058  00000+0  00000+0 0  9991
2 59600  54.6899 122.0300 0006974 238.9956 120.9033  1.70567975   587
